{
  "type": "FeatureCollection",
  "features": [
    {
      "type": "Feature",
      "properties": {
        "norad_id": 34765,
        "name": "IRIDIUM 33 DEB",
        "group": "iridium-33-debris",
        "lat": -47.18918986213304,
        "lon": 27.4223607740218,
        "alt_km": 768.0481508466446,
        "timestamp": "2025-12-15T22:44:29.314670+00:00",
        "meta_object_name": "IRIDIUM 33 DEB",
        "meta_object_id": "1997-051LJ",
        "meta_epoch": "2025-12-15T03:12:34.564032",
        "meta_mean_motion": 14.40470773,
        "meta_eccentricity": 0.00156839,
        "meta_inclination": 86.3391,
        "meta_ra_of_asc_node": 31.7345,
        "meta_arg_of_pericenter": 203.214,
        "meta_mean_anomaly": 211.8048,
        "meta_ephemeris_type": 0,
        "meta_classification_type": "U",
        "meta_norad_cat_id": 34765,
        "meta_element_set_no": 999,
        "meta_rev_at_epoch": 87648,
        "meta_bstar": 0.00039980899,
        "meta_mean_motion_dot": 1.292e-05,
        "meta_mean_motion_ddot": 0,
        "tle_line1": "1 34765U 97051LJ  25349.13373338  .00001292  00000+0  39981-3 0  9997",
        "tle_line2": "2 34765  86.3391  31.7345 0015683 203.2140 211.8048 14.40470773876489"
      },
      "geometry": {
        "type": "Point",
        "coordinates": [
          27.4223607740218,
          -47.18918986213304
        ]
      }
    },
    {
      "type": "Feature",
      "properties": {
        "norad_id": 34833,
        "name": "IRIDIUM 33 DEB",
        "group": "iridium-33-debris",
        "lat": -15.901385822846816,
        "lon": -129.35904581296532,
        "alt_km": 727.2700016301096,
        "timestamp": "2025-12-15T22:44:29.314680+00:00",
        "meta_object_name": "IRIDIUM 33 DEB",
        "meta_object_id": "1997-051MH",
        "meta_epoch": "2025-12-15T03:47:27.046752",
        "meta_mean_motion": 14.52394895,
        "meta_eccentricity": 0.00217546,
        "meta_inclination": 86.3935,
        "meta_ra_of_asc_node": 49.9516,
        "meta_arg_of_pericenter": 91.2087,
        "meta_mean_anomaly": 298.4464,
        "meta_ephemeris_type": 0,
        "meta_classification_type": "U",
        "meta_norad_cat_id": 34833,
        "meta_element_set_no": 999,
        "meta_rev_at_epoch": 87750,
        "meta_bstar": 0.0005426588,
        "meta_mean_motion_dot": 2.237e-05,
        "meta_mean_motion_ddot": 0,
        "tle_line1": "1 34833U 97051MH  25349.15795193  .00002237  00000+0  54266-3 0  9995",
        "tle_line2": "2 34833  86.3935  49.9516 0021754  91.2087 298.4464 14.52394895877501"
      },
      "geometry": {
        "type": "Point",
        "coordinates": [
          -129.35904581296532,
          -15.901385822846816
        ]
      }
    },
    {
      "type": "Feature",
      "properties": {
        "norad_id": 34870,
        "name": "IRIDIUM 33 DEB",
        "group": "iridium-33-debris",
        "lat": 83.91149335401437,
        "lon": -10.154897580148557,
        "alt_km": 632.0877262196236,
        "timestamp": "2025-12-15T22:44:29.314691+00:00",
        "meta_object_name": "IRIDIUM 33 DEB",
        "meta_object_id": "1997-051MQ",
        "meta_epoch": "2025-12-13T15:51:00.242208",
        "meta_mean_motion": 14.76459498,
        "meta_eccentricity": 0.00163253,
        "meta_inclination": 86.31,
        "meta_ra_of_asc_node": 313.6624,
        "meta_arg_of_pericenter": 179.046,
        "meta_mean_anomaly": 357.3162,
        "meta_ephemeris_type": 0,
        "meta_classification_type": "U",
        "meta_norad_cat_id": 34870,
        "meta_element_set_no": 999,
        "meta_rev_at_epoch": 88924,
        "meta_bstar": 0.0017247419,
        "meta_mean_motion_dot": 0.00012059,
        "meta_mean_motion_ddot": 0,
        "tle_line1": "1 34870U 97051MQ  25347.66041947  .00012059  00000+0  17247-2 0  9991",
        "tle_line2": "2 34870  86.3100 313.6624 0016325 179.0460 357.3162 14.76459498889246"
      },
      "geometry": {
        "type": "Point",
        "coordinates": [
          -10.154897580148557,
          83.91149335401437
        ]
      }
    },
    {
      "type": "Feature",
      "properties": {
        "norad_id": 34896,
        "name": "IRIDIUM 33 DEB",
        "group": "iridium-33-debris",
        "lat": 10.890397228023978,
        "lon": 144.53846937167515,
        "alt_km": 660.0248309219178,
        "timestamp": "2025-12-15T22:44:29.314702+00:00",
        "meta_object_name": "IRIDIUM 33 DEB",
        "meta_object_id": "1997-051MY",
        "meta_epoch": "2025-12-15T05:52:43.272192",
        "meta_mean_motion": 14.66306707,
        "meta_eccentricity": 0.00245889,
        "meta_inclination": 86.3284,
        "meta_ra_of_asc_node": 325.5614,
        "meta_arg_of_pericenter": 205.2361,
        "meta_mean_anomaly": 217.3935,
        "meta_ephemeris_type": 0,
        "meta_classification_type": "U",
        "meta_norad_cat_id": 34896,
        "meta_element_set_no": 999,
        "meta_rev_at_epoch": 87656,
        "meta_bstar": 0.00064086297,
        "meta_mean_motion_dot": 3.573e-05,
        "meta_mean_motion_ddot": 0,
        "tle_line1": "1 34896U 97051MY  25349.24494528  .00003573  00000+0  64086-3 0  9997",
        "tle_line2": "2 34896  86.3284 325.5614 0024588 205.2361 217.3935 14.66306707876567"
      },
      "geometry": {
        "type": "Point",
        "coordinates": [
          144.53846937167515,
          10.890397228023978
        ]
      }
    },
    {
      "type": "Feature",
      "properties": {
        "norad_id": 34926,
        "name": "IRIDIUM 33 DEB",
        "group": "iridium-33-debris",
        "lat": 60.24634560187562,
        "lon": 179.99123910236088,
        "alt_km": 755.6406072379959,
        "timestamp": "2025-12-15T22:44:29.314712+00:00",
        "meta_object_name": "IRIDIUM 33 DEB",
        "meta_object_id": "1997-051NF",
        "meta_epoch": "2025-12-15T07:23:48.350400",
        "meta_mean_motion": 14.54545382,
        "meta_eccentricity": 0.0075009,
        "meta_inclination": 86.1329,
        "meta_ra_of_asc_node": 7.0833,
        "meta_arg_of_pericenter": 283.9017,
        "meta_mean_anomaly": 90.022,
        "meta_ephemeris_type": 0,
        "meta_classification_type": "U",
        "meta_norad_cat_id": 34926,
        "meta_element_set_no": 999,
        "meta_rev_at_epoch": 86494,
        "meta_bstar": 0.003349664,
        "meta_mean_motion_dot": 0.00014866,
        "meta_mean_motion_ddot": 0,
        "tle_line1": "1 34926U 97051NF  25349.30819850  .00014866  00000+0  33497-2 0  9995",
        "tle_line2": "2 34926  86.1329   7.0833 0075009 283.9017  90.0220 14.54545382864942"
      },
      "geometry": {
        "type": "Point",
        "coordinates": [
          179.99123910236088,
          60.24634560187562
        ]
      }
    },
    {
      "type": "Feature",
      "properties": {
        "norad_id": 34985,
        "name": "IRIDIUM 33 DEB",
        "group": "iridium-33-debris",
        "lat": 78.88840365847025,
        "lon": -143.34534533563323,
        "alt_km": 749.2697211684153,
        "timestamp": "2025-12-15T22:44:29.314723+00:00",
        "meta_object_name": "IRIDIUM 33 DEB",
        "meta_object_id": "1997-051NR",
        "meta_epoch": "2025-12-15T04:05:34.122912",
        "meta_mean_motion": 14.42021736,
        "meta_eccentricity": 0.00209862,
        "meta_inclination": 86.3702,
        "meta_ra_of_asc_node": 55.8428,
        "meta_arg_of_pericenter": 211.4715,
        "meta_mean_anomaly": 178.0422,
        "meta_ephemeris_type": 0,
        "meta_classification_type": "U",
        "meta_norad_cat_id": 34985,
        "meta_element_set_no": 999,
        "meta_rev_at_epoch": 87210,
        "meta_bstar": 0.00047881813,
        "meta_mean_motion_dot": 1.594e-05,
        "meta_mean_motion_ddot": 0,
        "tle_line1": "1 34985U 97051NR  25349.17053383  .00001594  00000+0  47882-3 0  9994",
        "tle_line2": "2 34985  86.3702  55.8428 0020986 211.4715 178.0422 14.42021736872107"
      },
      "geometry": {
        "type": "Point",
        "coordinates": [
          -143.34534533563323,
          78.88840365847025
        ]
      }
    },
    {
      "type": "Feature",
      "properties": {
        "norad_id": 35051,
        "name": "IRIDIUM 33 DEB",
        "group": "iridium-33-debris",
        "lat": 81.19038861847551,
        "lon": 162.95871742134287,
        "alt_km": 718.8805958963794,
        "timestamp": "2025-12-15T22:44:29.314733+00:00",
        "meta_object_name": "IRIDIUM 33 DEB",
        "meta_object_id": "1997-051NX",
        "meta_epoch": "2025-12-11T08:47:57.045408",
        "meta_mean_motion": 14.47588957,
        "meta_eccentricity": 0.00106566,
        "meta_inclination": 86.3243,
        "meta_ra_of_asc_node": 9.4603,
        "meta_arg_of_pericenter": 94.8899,
        "meta_mean_anomaly": 265.3522,
        "meta_ephemeris_type": 0,
        "meta_classification_type": "U",
        "meta_norad_cat_id": 35051,
        "meta_element_set_no": 999,
        "meta_rev_at_epoch": 86976,
        "meta_bstar": 0.001042299,
        "meta_mean_motion_dot": 3.858e-05,
        "meta_mean_motion_ddot": 0,
        "tle_line1": "1 35051U 97051NX  25345.36663247  .00003858  00000+0  10423-2 0  9997",
        "tle_line2": "2 35051  86.3243   9.4603 0010656  94.8899 265.3522 14.47588957869768"
      },
      "geometry": {
        "type": "Point",
        "coordinates": [
          162.95871742134287,
          81.19038861847551
        ]
      }
    }
  ]
}